1 8333U          19326.29652778  .00000000  00000-0  00000-0 0 00000
2 8333 097.6220 189.3180 0000000 000.0000 034.5020 15.01914300000000
1 8333U          19326.40902778  .00000000  00000-0  00000-0 0 00000
2 8333 097.6220 189.4290 0000000 000.0000 282.0020 15.01914300000000
1 8333U          19326.46875000  .00000000  00000-0  00000-0 0 00000
2 8333 097.6220 189.4880 0000000 000.0000 244.5020 15.01914300000000
1 8333U          19326.54375000  .00000000  00000-0  00000-0 0 00000
2 8333 097.6220 189.5620 0000000 000.0000 289.5020 15.01914300000000
1 8333U          19326.65069444  .00000000  00000-0  00000-0 0 00000
2 8333 097.6210 189.6670 0000000 000.0000 147.0020 15.01914300000000
1 8333U          19326.74375000  .00000000  00000-0  00000-0 0 00000
2 8333 097.6210 189.7590 0000000 000.0000 289.5020 15.01914300000000
1 8333U          19326.79791667  .00000000  00000-0  00000-0 0 00000
2 8333 097.6210 189.8120 0000000 000.0000 222.0020 15.01914300000000
1 8333U          19326.89375000  .00000000  00000-0  00000-0 0 00000
2 8333 097.6210 189.9070 0000000 000.0000 019.5020 15.01914300000000
1 8333U          19326.96736111  .00000000  00000-0  00000-0 0 00000
2 8333 097.6210 189.9790 0000000 000.0000 057.0020 15.01914300000000
1 8333U          19327.06597222  .00000000  00000-0  00000-0 0 00000
2 8333 097.6210 190.0770 0000000 000.0000 229.5020 15.01914300000000
1 8333U          19327.12500000  .00000000  00000-0  00000-0 0 00000
2 8333 097.6210 190.1350 0000000 000.0000 188.2520 15.01914300000000
1 8333U          19327.21736111  .00000000  00000-0  00000-0 0 00000
2 8333 097.6200 190.2260 0000000 000.0000 327.0020 15.01914300000000
1 8333U          19327.30486111  .00000000  00000-0  00000-0 0 00000
2 8333 097.6200 190.3120 0000000 000.0000 079.5020 15.01914300000000
1 8333U          19327.39166667  .00000000  00000-0  00000-0 0 00000
2 8333 097.6200 190.3980 0000000 000.0000 188.2520 15.01914300000000
1 8333U          19327.46875000  .00000000  00000-0  00000-0 0 00000
2 8333 097.6200 190.4730 0000000 000.0000 244.5020 15.01914300000000
1 8333U          19327.54583333  .00000000  00000-0  00000-0 0 00000
2 8333 097.6200 190.5490 0000000 000.0000 300.7520 15.01914300000000
1 8333U          19327.65833333  .00000000  00000-0  00000-0 0 00000
2 8333 097.6200 190.6600 0000000 000.0000 188.2520 15.01914300000000
1 8333U          19327.73194444  .00000000  00000-0  00000-0 0 00000
2 8333 097.6190 190.7330 0000000 000.0000 225.7520 15.01914300000000
1 8333U          19327.79444444  .00000000  00000-0  00000-0 0 00000
2 8333 097.6190 190.7940 0000000 000.0000 203.2520 15.01914300000000
1 8333U          19327.88125000  .00000000  00000-0  00000-0 0 00000
2 8333 097.6190 190.8800 0000000 000.0000 312.0020 15.01914300000000
1 8333U          19327.99652778  .00000000  00000-0  00000-0 0 00000
2 8333 097.6190 190.9940 0000000 000.0000 214.5020 15.01914300000000
1 8333U          19328.04444444  .00000000  00000-0  00000-0 0 00000
2 8333 097.6190 191.0410 0000000 000.0000 113.2520 15.01914300000000
1 8333U          19328.12500000  .00000000  00000-0  00000-0 0 00000
2 8333 097.6190 191.1200 0000000 000.0000 188.2520 15.01914300000000
1 8333U          19328.23819444  .00000000  00000-0  00000-0 0 00000
2 8333 097.6180 191.2320 0000000 000.0000 079.5020 15.01914300000000
1 8333U          19328.31319444  .00000000  00000-0  00000-0 0 00000
2 8333 097.6180 191.3060 0000000 000.0000 124.5020 15.01914300000000
1 8333U          19328.39583333  .00000000  00000-0  00000-0 0 00000
2 8333 097.6180 191.3870 0000000 000.0000 210.7510 15.01914300000000
1 8333U          19328.46805556  .00000000  00000-0  00000-0 0 00000
2 8333 097.6180 191.4580 0000000 000.0000 240.7510 15.01914300000000
1 8333U          19328.55694444  .00000000  00000-0  00000-0 0 00000
2 8333 097.6180 191.5460 0000000 000.0000 000.7510 15.01914300000000
1 8333U          19328.62569444  .00000000  00000-0  00000-0 0 00000
2 8333 097.6180 191.6140 0000000 000.0000 012.0010 15.01914300000000
1 8333U          19328.71875000  .00000000  00000-0  00000-0 0 00000
2 8333 097.6180 191.7050 0000000 000.0000 154.5010 15.01914300000000
1 8333U          19328.80902778  .00000000  00000-0  00000-0 0 00000
2 8333 097.6170 191.7940 0000000 000.0000 282.0010 15.01914300000000
1 8333U          19328.87847222  .00000000  00000-0  00000-0 0 00000
2 8333 097.6170 191.8630 0000000 000.0000 297.0010 15.01914300000000
1 8333U          19328.95972222  .00000000  00000-0  00000-0 0 00000
2 8333 097.6170 191.9430 0000000 000.0000 015.7510 15.01914300000000
