NORAD_CAT_ID,EPOCH,MEAN_MOTION,ECCENTRICITY,INCLINATION,RA_OF_ASC_NODE,ARG_OF_PERICENTER,MEAN_ANOMALY,SEMIMAJOR_AXIS,PERIOD,APOGEE,PERIGEE
8333,2019-11-22 07:07:00,15.019143,0.0,97.62200000000001,189.31799999999998,0.0,34.501999999999995,6939.130783,95.87799999999999,560.993783,560.993783
8333,2019-11-22 09:49:00,15.019143,0.0,97.62200000000001,189.429,0.0,282.002,6939.130783,95.87799999999999,560.993783,560.993783
8333,2019-11-22 11:15:00,15.019143,0.0,97.62200000000001,189.488,0.0,244.502,6939.130783,95.87799999999999,560.993783,560.993783
8333,2019-11-22 13:03:00,15.019143,0.0,97.62200000000001,189.562,0.0,289.502,6939.130783,95.87799999999999,560.993783,560.993783
8333,2019-11-22 15:37:00,15.019143,0.0,97.62100000000001,189.667,0.0,147.002,6939.130783,95.87799999999999,560.993783,560.993783
8333,2019-11-22 17:51:00,15.019143,0.0,97.62100000000001,189.75900000000001,0.0,289.502,6939.130783,95.87799999999999,560.993783,560.993783
8333,2019-11-22 19:09:00,15.019143,0.0,97.62100000000001,189.812,0.0,222.002,6939.130783,95.87799999999999,560.993783,560.993783
8333,2019-11-22 21:27:00,15.019143,0.0,97.62100000000001,189.907,0.0,19.502,6939.130783,95.87799999999999,560.993783,560.993783
8333,2019-11-22 23:13:00,15.019143,0.0,97.62100000000001,189.979,0.0,57.001999999999995,6939.130783,95.87799999999999,560.993783,560.993783
8333,2019-11-23 01:35:00,15.019143,0.0,97.62100000000001,190.077,0.0,229.502,6939.130783,95.87799999999999,560.993783,560.993783
8333,2019-11-23 03:00:00,15.019143,0.0,97.62100000000001,190.135,0.0,188.252,6939.130783,95.87799999999999,560.993783,560.993783
8333,2019-11-23 05:13:00,15.019143,0.0,97.62,190.226,0.0,327.002,6939.130783,95.87799999999999,560.993783,560.993783
8333,2019-11-23 07:19:00,15.019143,0.0,97.62,190.312,0.0,79.502,6939.130783,95.87799999999999,560.993783,560.993783
8333,2019-11-23 09:24:00,15.019143,0.0,97.62,190.398,0.0,188.252,6939.130783,95.87799999999999,560.993783,560.993783
8333,2019-11-23 11:15:00,15.019143,0.0,97.62,190.47299999999998,0.0,244.502,6939.130783,95.87799999999999,560.993783,560.993783
8333,2019-11-23 13:06:00,15.019143,0.0,97.62,190.549,0.0,300.752,6939.130783,95.87799999999999,560.993783,560.993783
8333,2019-11-23 15:48:00,15.019143,0.0,97.62,190.66,0.0,188.252,6939.130783,95.87799999999999,560.993783,560.993783
8333,2019-11-23 17:34:00,15.019143,0.0,97.619,190.733,0.0,225.752,6939.130783,95.87799999999999,560.993783,560.993783
8333,2019-11-23 19:04:00,15.019143,0.0,97.619,190.794,0.0,203.252,6939.130783,95.87799999999999,560.993783,560.993783
8333,2019-11-23 21:09:00,15.019143,0.0,97.619,190.88,0.0,312.002,6939.130783,95.87799999999999,560.993783,560.993783
8333,2019-11-23 23:55:00,15.019143,0.0,97.619,190.99400000000003,0.0,214.502,6939.130783,95.87799999999999,560.993783,560.993783
8333,2019-11-24 01:04:00,15.019143,0.0,97.619,191.041,0.0,113.25200000000001,6939.130783,95.87799999999999,560.993783,560.993783
8333,2019-11-24 03:00:00,15.019143,0.0,97.619,191.12,0.0,188.252,6939.130783,95.87799999999999,560.993783,560.993783
8333,2019-11-24 05:43:00,15.019143,0.0,97.618,191.232,0.0,79.502,6939.130783,95.87799999999999,560.993783,560.993783
8333,2019-11-24 07:31:00,15.019143,0.0,97.618,191.30599999999998,0.0,124.50200000000001,6939.130783,95.87799999999999,560.993783,560.993783
8333,2019-11-24 09:30:00,15.019143,0.0,97.618,191.387,0.0,210.75099999999998,6939.130783,95.87799999999999,560.993783,560.993783
8333,2019-11-24 11:14:00,15.019143,0.0,97.618,191.458,0.0,240.75099999999998,6939.130783,95.87799999999999,560.993783,560.993783
8333,2019-11-24 13:22:00,15.019143,0.0,97.618,191.546,0.0,0.7509999999999999,6939.130783,95.87799999999999,560.993783,560.993783
8333,2019-11-24 15:01:00,15.019143,0.0,97.618,191.614,0.0,12.001,6939.130783,95.87799999999999,560.993783,560.993783
8333,2019-11-24 17:15:00,15.019143,0.0,97.618,191.705,0.0,154.501,6939.130783,95.87799999999999,560.993783,560.993783
8333,2019-11-24 19:25:00,15.019143,0.0,97.617,191.794,0.0,282.001,6939.130783,95.87799999999999,560.993783,560.993783
8333,2019-11-24 21:05:00,15.019143,0.0,97.617,191.863,0.0,297.001,6939.130783,95.87799999999999,560.993783,560.993783
8333,2019-11-24 23:02:00,15.019143,0.0,97.617,191.94299999999998,0.0,15.751,6939.130783,95.87799999999999,560.993783,560.993783
